POLYITAN-1              
1 40042U 14033AJ  26200.01912469  .00010706  00000+0  32474-3 0  9999
2 40042  98.0933 229.3172 0007568  52.9649 307.2284 15.34301991658473
TIGRISAT                
1 40043U 14033AK  26199.91513309  .00000712  00000+0  87771-4 0  9993
2 40043  97.7871 349.2082 0048317 331.9697  27.8917 14.85255364650335
AEROCUBE 6A             
1 40045U 14033AM  26200.01412942  .00003406  00000+0  28706-3 0  9995
2 40045  97.7264   6.6334 0036123 267.7597  91.9489 14.98368779651385
AEROCUBE 6B             
1 40046U 14033AN  26200.18566278  .00002523  00000+0  20580-3 0  9997
2 40046  97.7208   6.6571 0038154 256.0167 103.6812 14.99818515651556
CANX-4                  
1 40055U 14034C   26200.17025663  .00000387  00000+0  56948-4 0  9999
2 40055  98.3077  76.6514 0011370 268.5176  91.4733 14.81314871649268
CANX-5                  
1 40056U 14034D   26200.23586366  .00000384  00000+0  56525-4 0  9997
2 40056  98.3080  76.7649 0011372 268.5748  91.4161 14.81332261640089
UKUBE-1                 
1 40074U 14037F   26200.29300612  .00004488  00000+0  25166-3 0  9999
2 40074  98.4249 206.9508 0003178  81.0008 279.1581 15.13986159653419
BRITE-PL2 (HEWELIUSZ)   
1 40119U 14049B   26200.23975139  .00000707  00000+0  70573-4 0  9991
2 40119  97.9121 312.4929 0013945   9.0483 351.0986 14.94692460646230
AEROCUBE 5C             
1 40965U 15058B   26200.28766972  .00001808  00000+0  16701-3 0  9994
2 40965  64.7651 162.7146 0132629  50.8967 310.3850 14.91591998370444
AEROCUBE 7              
1 40966U 15058C   26200.25844782  .00002741  00000+0  22403-3 0  9991
2 40966  64.7617 144.3442 0122337  49.2130 311.9521 14.95937003370752
FOX-1A (AO-85)          
1 40967U 15058D   26200.21156614  .00001675  00000+0  15786-3 0  9999
2 40967  64.7726 179.4497 0132692  44.2902 316.8736 14.91102753118349
SINOD-D 1               
1 40968U 15058E   26200.29945566  .00002821  00000+0  22960-3 0  9996
2 40968  64.7741 158.3324 0121420  40.6040 320.4051 14.96111905121464
SNAP-3 ALICE            
1 40970U 15058G   26199.82244594  .00090133  00000+0  79101-3 0  9990
2 40970  64.7500 353.9098 0025389 346.0004  14.0439 15.67917417121839
LMRST-SAT               
1 40971U 15058H   26200.17510581  .00001638  00000+0  15568-3 0  9993
2 40971  64.7733 175.9623 0134209  46.3056 314.9082 14.90717529118326
SNAP-3 EDDIE            
1 40972U 15058J   26200.10537115  .00106928  00000+0  87784-3 0  9996
2 40972  64.7413 343.3975 0026649 348.4255  11.6279 15.69428011124023
PROPCUBE 3              
1 40973U 15058K   26200.26552703  .00002367  00000+0  20162-3 0  9993
2 40973  64.7679 152.2960 0126099  47.4574 313.7103 14.94435958119592
BISONSAT                
1 40974U 15058L   26200.08028834  .00007419  00000+0  35209-3 0  9998
2 40974  64.7579  70.4598 0082477  34.2119 326.4280 15.16993064120456
SNAP-3 JIMI             
1 40975U 15058M   26200.20517577  .00003866  00000+0  26719-3 0  9998
2 40975  64.7645 118.4420 0108163  42.7825 318.1647 15.02642517119033
PROPCUBE 1 (FLORA)      
1 40976U 15058N   26200.22660060  .00001380  00000+0  13892-3 0  9994
2 40976  64.7717 195.9264 0132779  48.5545 312.6881 14.89340265121034
SINOD-D 3               
1 40977U 15058P   26200.30235092  .00002326  00000+0  20182-3 0  9998
2 40977  64.7711 175.5179 0121398  45.5581 315.5386 14.94193569119555
RAVAN                   
1 41849U 16067B   26200.19254527  .00034818  00000+0  46938-3 0  9997
2 41849  97.9828  93.5362 0002772 198.2814 161.8341 15.57750356532671
CELTEE 1                
1 41850U 16067C   26200.07271714  .00002553  00000+0  12229-3 0  9990
2 41850  98.0629  68.8140 0002415 104.9453 255.2048 15.19962109530725
OPTICUBE 04             
1 41851U 16067D   26200.15793471  .00000998  00000+0  66095-4 0  9991
2 41851  98.0672  54.1073 0015874  15.0757 345.0940 15.09780674529999
AEROCUBE 8D             
1 41852U 16067E   26200.18385609  .00003758  00000+0  15481-3 0  9994
2 41852  98.0634  72.7915 0004337  46.8473 313.3125 15.24801432530941
AEROCUBE 8C             
1 41853U 16067F   26200.20354282  .00003643  00000+0  14907-3 0  9996
2 41853  98.0511  69.9999 0003839 324.8010  35.2972 15.25055337530944
CORVUS BC2              
1 42846U 17042X   26200.01275482  .00001259  00000+0  89248-4 0  9998
2 42846  97.4094   0.1342 0013048  10.0024 350.1461 15.06466541491857
CORVUS BC1              
1 42847U 17042Y   26200.00387047  .00001757  00000+0  12244-3 0  9993
2 42847  97.4127   0.9604 0011257 346.3950  13.6973 15.06631771491888
MAKERSAT 0              
1 43016U 17073D   26199.58482991  .00010616  00000+0  27996-3 0  9994
2 43016  97.4572  82.3624 0105621 160.2361 200.3022 15.33085965471274
SIRION PATHFINDER-2     
1 43759U 18099B   26200.08990212  .00002458  00000+0  13582-3 0  9996
2 43759  97.4232 248.3912 0008881 177.9232 182.2039 15.14795023417455
CORVUS BC4              
1 43767U 18099K   26200.07385115  .00002224  00000+0  13058-3 0  9993
2 43767  97.4047 242.1222 0006701 244.0849 115.9692 15.12717787417225
