OBJECT_NAME,OBJECT_ID,EPOCH,MEAN_MOTION,ECCENTRICITY,INCLINATION,RA_OF_ASC_NODE,ARG_OF_PERICENTER,MEAN_ANOMALY,EPHEMERIS_TYPE,CLASSIFICATION_TYPE,NORAD_CAT_ID,ELEMENT_SET_NO,REV_AT_EPOCH,BSTAR,MEAN_MOTION_DOT,MEAN_MOTION_DDOT
POLYITAN-1,2014-033AJ,2026-07-19T00:27:32.373216,15.34301991,.00075682,98.0933,229.3172,52.9649,307.2284,0,U,40042,999,65847,.32474203E-3,.10706E-3,0
TIGRISAT,2014-033AK,2026-07-18T21:57:47.498976,14.85255364,.00483178,97.7871,349.2082,331.9697,27.8917,0,U,40043,999,65033,.87770638E-4,.712E-5,0
AEROCUBE 6A,2014-033AM,2026-07-19T00:20:20.781888,14.98368779,.00361239,97.7264,6.6334,267.7597,91.9489,0,U,40045,999,65138,.287062E-3,.3406E-4,0
AEROCUBE 6B,2014-033AN,2026-07-19T04:27:21.264192,14.99818515,.00381548,97.7208,6.6571,256.0167,103.6812,0,U,40046,999,65155,.20580166E-3,.2523E-4,0
CANX-4,2014-034C,2026-07-19T04:05:10.172832,14.81314871,.00113705,98.3077,76.6514,268.5176,91.4733,0,U,40055,999,64926,.56947934E-4,.387E-5,0
CANX-5,2014-034D,2026-07-19T05:39:38.620224,14.81332261,.00113728,98.3080,76.7649,268.5748,91.4161,0,U,40056,999,64008,.56525204E-4,.384E-5,0
UKUBE-1,2014-037F,2026-07-19T07:01:55.728768,15.13986159,.00031783,98.4249,206.9508,81.0008,279.1581,0,U,40074,999,65341,.25165698E-3,.4488E-4,0
BRITE-PL2 (HEWELIUSZ),2014-049B,2026-07-19T05:45:14.520096,14.94692460,.00139458,97.9121,312.4929,9.0483,351.0986,0,U,40119,999,64623,.70572811E-4,.707E-5,0
AEROCUBE 5C,2015-058B,2026-07-19T06:54:14.663808,14.91591998,.01326294,64.7651,162.7146,50.8967,310.3850,0,U,40965,999,37044,.16701494E-3,.1808E-4,0
AEROCUBE 7,2015-058C,2026-07-19T06:12:09.891648,14.95937003,.01223375,64.7617,144.3442,49.2130,311.9521,0,U,40966,999,37075,.22402897E-3,.2741E-4,0
FOX-1A (AO-85),2015-058D,2026-07-19T05:04:39.314496,14.91102753,.01326927,64.7726,179.4497,44.2902,316.8736,0,U,40967,999,11834,.15786453E-3,.1675E-4,0
SINOD-D 1,2015-058E,2026-07-19T07:11:12.969024,14.96111905,.01214206,64.7741,158.3324,40.6040,320.4051,0,U,40968,999,12146,.22960319E-3,.2821E-4,0
SNAP-3 ALICE,2015-058G,2026-07-18T19:44:19.329216,15.67917417,.00253896,64.7500,353.9098,346.0004,14.0439,0,U,40970,999,12183,.79100508E-3,.90133E-3,0
LMRST-SAT,2015-058H,2026-07-19T04:12:09.141984,14.90717529,.01342096,64.7733,175.9623,46.3056,314.9082,0,U,40971,999,11832,.15568273E-3,.1638E-4,0
SNAP-3 EDDIE,2015-058J,2026-07-19T02:31:44.067360,15.69428011,.0026649,64.7413,343.3975,348.4255,11.6279,0,U,40972,999,12402,.87783851E-3,.106928E-2,0
PROPCUBE 3,2015-058K,2026-07-19T06:22:21.535392,14.94435958,.01260998,64.7679,152.2960,47.4574,313.7103,0,U,40973,999,11959,.20161738E-3,.2367E-4,0
BISONSAT,2015-058L,2026-07-19T01:55:36.912576,15.16993064,.00824773,64.7579,70.4598,34.2119,326.4280,0,U,40974,999,12045,.35208507E-3,.7419E-4,0
SNAP-3 JIMI,2015-058M,2026-07-19T04:55:27.186528,15.02642517,.0108163,64.7645,118.4420,42.7825,318.1647,0,U,40975,999,11903,.26718886E-3,.3866E-4,0
PROPCUBE 1 (FLORA),2015-058N,2026-07-19T05:26:18.291840,14.89340265,.0132779,64.7717,195.9264,48.5545,312.6881,0,U,40976,999,12103,.13891841E-3,.138E-4,0
SINOD-D 3,2015-058P,2026-07-19T07:15:23.119488,14.94193569,.01213987,64.7711,175.5179,45.5581,315.5386,0,U,40977,999,11955,.20181872E-3,.2326E-4,0
RAVAN,2016-067B,2026-07-19T04:37:15.911328,15.57750356,.00027724,97.9828,93.5362,198.2814,161.8341,0,U,41849,999,53267,.46937576E-3,.34818E-3,0
CELTEE 1,2016-067C,2026-07-19T01:44:42.760896,15.19962109,.00024157,98.0629,68.8140,104.9453,255.2048,0,U,41850,999,53072,.12229465E-3,.2553E-4,0
OPTICUBE 04,2016-067D,2026-07-19T03:47:25.558944,15.09780674,.00158745,98.0672,54.1073,15.0757,345.0940,0,U,41851,999,52999,.66095248E-4,.998E-5,0
AEROCUBE 8D,2016-067E,2026-07-19T04:24:45.166176,15.24801432,.00043378,98.0634,72.7915,46.8473,313.3125,0,U,41852,999,53094,.15481485E-3,.3758E-4,0
AEROCUBE 8C,2016-067F,2026-07-19T04:53:06.099648,15.25055337,.00038393,98.0511,69.9999,324.8010,35.2972,0,U,41853,999,53094,.14906549E-3,.3643E-4,0
CORVUS BC2,2017-042X,2026-07-19T00:18:22.016448,15.06466541,.00130489,97.4094,0.1342,10.0024,350.1461,0,U,42846,999,49185,.89247892E-4,.1259E-4,0
CORVUS BC1,2017-042Y,2026-07-19T00:05:34.408608,15.06631771,.00112575,97.4127,0.9604,346.3950,13.6973,0,U,42847,999,49188,.12243805E-3,.1757E-4,0
MAKERSAT 0,2017-073D,2026-07-18T14:02:09.304224,15.33085965,.0105621,97.4572,82.3624,160.2361,200.3022,0,U,43016,999,47127,.27996E-3,.10616E-3,0
SIRION PATHFINDER-2,2018-099B,2026-07-19T02:09:27.543168,15.14795023,.00088814,97.4232,248.3912,177.9232,182.2039,0,U,43759,999,41745,.1358178E-3,.2458E-4,0
CORVUS BC4,2018-099K,2026-07-19T01:46:20.739360,15.12717787,.00067012,97.4047,242.1222,244.0849,115.9692,0,U,43767,999,41722,.13058229E-3,.2224E-4,0
